KUIPER-00112            
1 65150U 25171U   25279.61843500  .00058713  00000+0  16025-2 0  9994
2 65150  51.8762 134.1677 0005163 354.3160   5.7767 15.36851519  9863
KUIPER-00114            
1 65151U 25171V   25279.86320570  .00015133  00000+0  11612-2 0  9995
2 65151  51.8887 137.0248 0001278 245.1959 114.8880 15.01955753  9847
KUIPER-00115            
1 65152U 25171W   25278.50001156 -.00926371  00000+0 -41206-1 0  9990
2 65152  51.8818 140.0662 0008648 334.6373  72.7211 15.23526263  5860
KUIPER-00116            
1 65153U 25171X   25280.00001157 -.00918744  00000+0 -63844-1 0  9997
2 65153  51.8940 135.0290 0006980 306.9641  50.5923 15.07942045  4185
KUIPER-00118            
1 65154U 25171Y   25280.00001157 -.01245841  00000+0 -10569+0 0  9994
2 65154  51.8893 136.2594 0004504 319.1743 234.0834 15.00487785  5237
KUIPER-00119            
1 65155U 25171Z   25279.86516957  .00057839  00000+0  18351-2 0  9991
2 65155  51.8695 132.7909 0000897 281.0979  78.9904 15.32123133  9908
